STARLINK-2560_new
1 18402C 21038BB  21326.14156085  .00006688  00000-0  44821-3 0  3260
2 18402  53.0541 183.1071 0001865  77.7979 145.1514 15.06384599    17
STARLINK-2560_old
1 28402C 21038BB  21325.14569319 -.00008484  00000-0 -56859-3 0  3258
2 28402  53.0542 187.5776 0001900  76.0658 143.2961 15.06398444    13
